STARLINK-2000
1 27595C 21009AZ  21325.15564238  .00009217  00000-0  61740-3 0  3252
2 27595  53.0541 247.5406 0002070  64.5994  78.6841 15.06395471    10
